[{"OBJECT_NAME":"LEMUR-2-GRAM-E-SUE","OBJECT_ID":"2026-004H","EPOCH":"2026-03-09T22:14:14.369280","MEAN_MOTION":14.87820333,"ECCENTRICITY":0.00087695,"INCLINATION":97.7976,"RA_OF_ASC_NODE":69.0865,"ARG_OF_PERICENTER":107.9643,"MEAN_ANOMALY":252.2531,"EPHEMERIS_TYPE":0,"CLASSIFICATION_TYPE":"U","NORAD_CAT_ID":67370,"ELEMENT_SET_NO":999,"REV_AT_EPOCH":853,"BSTAR":0.00070013244,"MEAN_MOTION_DOT":6.35e-5,"MEAN_MOTION_DDOT":0},{"OBJECT_NAME":"SL-14 R\/B","OBJECT_ID":"1986-097B","EPOCH":"2026-03-09T17:44:55.762656","MEAN_MOTION":14.85914062,"ECCENTRICITY":0.00168455,"INCLINATION":82.5075,"RA_OF_ASC_NODE":142.1125,"ARG_OF_PERICENTER":29.7795,"MEAN_ANOMALY":91.8708,"EPHEMERIS_TYPE":0,"CLASSIFICATION_TYPE":"U","NORAD_CAT_ID":17192,"ELEMENT_SET_NO":999,"REV_AT_EPOCH":10035,"BSTAR":6.1876396e-5,"MEAN_MOTION_DOT":5.65e-6,"MEAN_MOTION_DDOT":0}]
